{
  "type": "FeatureCollection",
  "features": [
    {
      "type": "Feature",
      "properties": {
        "norad_id": 30533,
        "name": "FENGYUN 1C DEB",
        "group": "fengyun-1c-debris",
        "lat": -56.9164050803486,
        "lon": 122.59044364255139,
        "alt_km": 762.0118535398115,
        "timestamp": "2025-12-06T07:31:40.513948+00:00",
        "meta_object_name": "FENGYUN 1C DEB",
        "meta_object_id": "1999-025AJX",
        "meta_epoch": "2025-12-04T21:40:44.793408",
        "meta_mean_motion": 14.53400554,
        "meta_eccentricity": 0.0083773,
        "meta_inclination": 98.8349,
        "meta_ra_of_asc_node": 107.292,
        "meta_arg_of_pericenter": 172.7369,
        "meta_mean_anomaly": 313.3062,
        "meta_ephemeris_type": 0,
        "meta_classification_type": "U",
        "meta_norad_cat_id": 30533,
        "meta_element_set_no": 999,
        "meta_rev_at_epoch": 97707,
        "meta_bstar": 0.0073742,
        "meta_mean_motion_dot": 0.00032237,
        "meta_mean_motion_ddot": 0,
        "tle_line1": "1 30533U 99025AJX 25338.90329622  .00032237  00000+0  73742-2 0  9994",
        "tle_line2": "2 30533  98.8349 107.2920 0083773 172.7369 313.3062 14.53400554977070"
      },
      "geometry": {
        "type": "Point",
        "coordinates": [
          122.59044364255139,
          -56.9164050803486
        ]
      }
    },
    {
      "type": "Feature",
      "properties": {
        "norad_id": 30539,
        "name": "FENGYUN 1C DEB",
        "group": "fengyun-1c-debris",
        "lat": -11.772878115635171,
        "lon": -37.767459072566176,
        "alt_km": 662.245570127785,
        "timestamp": "2025-12-06T07:31:40.513959+00:00",
        "meta_object_name": "FENGYUN 1C DEB",
        "meta_object_id": "1999-025AKD",
        "meta_epoch": "2025-12-04T20:55:50.813760",
        "meta_mean_motion": 14.55323077,
        "meta_eccentricity": 0.0115884,
        "meta_inclination": 98.8788,
        "meta_ra_of_asc_node": 318.834,
        "meta_arg_of_pericenter": 299.8733,
        "meta_mean_anomaly": 59.0988,
        "meta_ephemeris_type": 0,
        "meta_classification_type": "U",
        "meta_norad_cat_id": 30539,
        "meta_element_set_no": 999,
        "meta_rev_at_epoch": 99251,
        "meta_bstar": 0.0015062,
        "meta_mean_motion_dot": 7.097e-05,
        "meta_mean_motion_ddot": 0,
        "tle_line1": "1 30539U 99025AKD 25338.87211590  .00007097  00000+0  15062-2 0  9997",
        "tle_line2": "2 30539  98.8788 318.8340 0115884 299.8733  59.0988 14.55323077992517"
      },
      "geometry": {
        "type": "Point",
        "coordinates": [
          -37.767459072566176,
          -11.772878115635171
        ]
      }
    },
    {
      "type": "Feature",
      "properties": {
        "norad_id": 30540,
        "name": "FENGYUN 1C DEB",
        "group": "fengyun-1c-debris",
        "lat": 9.449061986347692,
        "lon": 87.01440476409165,
        "alt_km": 774.2299911305536,
        "timestamp": "2025-12-06T07:31:40.513969+00:00",
        "meta_object_name": "FENGYUN 1C DEB",
        "meta_object_id": "1999-025AKE",
        "meta_epoch": "2025-12-05T06:28:03.144576",
        "meta_mean_motion": 14.32153337,
        "meta_eccentricity": 0.00522705,
        "meta_inclination": 98.8795,
        "meta_ra_of_asc_node": 87.4368,
        "meta_arg_of_pericenter": 84.5635,
        "meta_mean_anomaly": 305.1478,
        "meta_ephemeris_type": 0,
        "meta_classification_type": "U",
        "meta_norad_cat_id": 30540,
        "meta_element_set_no": 999,
        "meta_rev_at_epoch": 97179,
        "meta_bstar": 0.0040440796,
        "meta_mean_motion_dot": 0.00011021,
        "meta_mean_motion_ddot": 0,
        "tle_line1": "1 30540U 99025AKE 25339.26948084  .00011021  00000+0  40441-2 0  9999",
        "tle_line2": "2 30540  98.8795  87.4368 0052270  84.5635 305.1478 14.32153337971796"
      },
      "geometry": {
        "type": "Point",
        "coordinates": [
          87.01440476409165,
          9.449061986347692
        ]
      }
    },
    {
      "type": "Feature",
      "properties": {
        "norad_id": 30541,
        "name": "FENGYUN 1C DEB",
        "group": "fengyun-1c-debris",
        "lat": -73.4191977061679,
        "lon": 176.00748975500025,
        "alt_km": 834.3885203016662,
        "timestamp": "2025-12-06T07:31:40.514001+00:00",
        "meta_object_name": "FENGYUN 1C DEB",
        "meta_object_id": "1999-025AKF",
        "meta_epoch": "2025-12-04T08:46:02.796960",
        "meta_mean_motion": 14.22988268,
        "meta_eccentricity": 0.001873,
        "meta_inclination": 98.6955,
        "meta_ra_of_asc_node": 25.0137,
        "meta_arg_of_pericenter": 109.2248,
        "meta_mean_anomaly": 251.0959,
        "meta_ephemeris_type": 0,
        "meta_classification_type": "U",
        "meta_norad_cat_id": 30541,
        "meta_element_set_no": 999,
        "meta_rev_at_epoch": 97208,
        "meta_bstar": 0.0025566,
        "meta_mean_motion_dot": 5.727e-05,
        "meta_mean_motion_ddot": 0,
        "tle_line1": "1 30541U 99025AKF 25338.36531015  .00005727  00000+0  25566-2 0  9999",
        "tle_line2": "2 30541  98.6955  25.0137 0018730 109.2248 251.0959 14.22988268972087"
      },
      "geometry": {
        "type": "Point",
        "coordinates": [
          176.00748975500025,
          -73.4191977061679
        ]
      }
    },
    {
      "type": "Feature",
      "properties": {
        "norad_id": 30542,
        "name": "FENGYUN 1C DEB",
        "group": "fengyun-1c-debris",
        "lat": 45.328791228390024,
        "lon": -161.75506318396847,
        "alt_km": 881.5007080415053,
        "timestamp": "2025-12-06T07:31:40.514012+00:00",
        "meta_object_name": "FENGYUN 1C DEB",
        "meta_object_id": "1999-025AKG",
        "meta_epoch": "2025-12-05T00:28:16.348224",
        "meta_mean_motion": 14.06967345,
        "meta_eccentricity": 0.00278054,
        "meta_inclination": 98.7878,
        "meta_ra_of_asc_node": 7.9853,
        "meta_arg_of_pericenter": 356.2884,
        "meta_mean_anomaly": 66.6831,
        "meta_ephemeris_type": 0,
        "meta_classification_type": "U",
        "meta_norad_cat_id": 30542,
        "meta_element_set_no": 999,
        "meta_rev_at_epoch": 96810,
        "meta_bstar": 0.00038043894,
        "meta_mean_motion_dot": 5.94e-06,
        "meta_mean_motion_ddot": 0,
        "tle_line1": "1 30542U 99025AKG 25339.01963366  .00000594  00000+0  38044-3 0  9994",
        "tle_line2": "2 30542  98.7878   7.9853 0027805 356.2884  66.6831 14.06967345968102"
      },
      "geometry": {
        "type": "Point",
        "coordinates": [
          -161.75506318396847,
          45.328791228390024
        ]
      }
    },
    {
      "type": "Feature",
      "properties": {
        "norad_id": 30543,
        "name": "FENGYUN 1C DEB",
        "group": "fengyun-1c-debris",
        "lat": -73.9289625808735,
        "lon": 22.72830341719936,
        "alt_km": 920.3641012206654,
        "timestamp": "2025-12-06T07:31:40.514022+00:00",
        "meta_object_name": "FENGYUN 1C DEB",
        "meta_object_id": "1999-025AKH",
        "meta_epoch": "2025-12-05T06:50:04.535808",
        "meta_mean_motion": 14.03728673,
        "meta_eccentricity": 0.00727268,
        "meta_inclination": 98.8326,
        "meta_ra_of_asc_node": 349.0638,
        "meta_arg_of_pericenter": 54.2498,
        "meta_mean_anomaly": 73.3789,
        "meta_ephemeris_type": 0,
        "meta_classification_type": "U",
        "meta_norad_cat_id": 30543,
        "meta_element_set_no": 999,
        "meta_rev_at_epoch": 96400,
        "meta_bstar": 0.00045736915,
        "meta_mean_motion_dot": 6.94e-06,
        "meta_mean_motion_ddot": 0,
        "tle_line1": "1 30543U 99025AKH 25339.28477472  .00000694  00000+0  45737-3 0  9990",
        "tle_line2": "2 30543  98.8326 349.0638 0072726  54.2498  73.3789 14.03728673964009"
      },
      "geometry": {
        "type": "Point",
        "coordinates": [
          22.72830341719936,
          -73.9289625808735
        ]
      }
    },
    {
      "type": "Feature",
      "properties": {
        "norad_id": 30545,
        "name": "FENGYUN 1C DEB",
        "group": "fengyun-1c-debris",
        "lat": 27.156862327992066,
        "lon": -171.27171029209393,
        "alt_km": 823.0435344443567,
        "timestamp": "2025-12-06T07:31:40.514032+00:00",
        "meta_object_name": "FENGYUN 1C DEB",
        "meta_object_id": "1999-025AKK",
        "meta_epoch": "2025-12-04T13:35:17.043072",
        "meta_mean_motion": 13.20772871,
        "meta_eccentricity": 0.0472854,
        "meta_inclination": 99.0009,
        "meta_ra_of_asc_node": 191.8845,
        "meta_arg_of_pericenter": 30.6814,
        "meta_mean_anomaly": 332.1069,
        "meta_ephemeris_type": 0,
        "meta_classification_type": "U",
        "meta_norad_cat_id": 30545,
        "meta_element_set_no": 999,
        "meta_rev_at_epoch": 90822,
        "meta_bstar": 0.00083355,
        "meta_mean_motion_dot": 5.75e-06,
        "meta_mean_motion_ddot": 0,
        "tle_line1": "1 30545U 99025AKK 25338.56616948  .00000575  00000+0  83355-3 0  9991",
        "tle_line2": "2 30545  99.0009 191.8845 0472854  30.6814 332.1069 13.20772871908227"
      },
      "geometry": {
        "type": "Point",
        "coordinates": [
          -171.27171029209393,
          27.156862327992066
        ]
      }
    }
  ]
}